AMC-6 (GE-6)            
1 26580U 00067A   17200.73382590 -.00000227  00000-0  00000-0 0  9993
2 26580   0.0237 317.4294 0002273 184.3878 337.0658  1.00269956 61342
INTELSAT 12 (IS-12)     
1 26590U 00068A   17200.11084628  .00000126  00000-0  00000-0 0  9995
2 26590   0.5506  93.0459 0002725  77.6780 211.2643  1.00273386 61164
INTELSAT 1R (IS-1R)     
1 26608U 00072A   17200.77757656 -.00000041  00000-0  00000-0 0  9997
2 26608   0.3827  93.1533 0000562 268.7919  24.8893  1.00271251  8688
ANIK F1                 
1 26624U 00076A   17200.47184149 -.00000085  00000-0  00000-0 0  9995
2 26624   0.0195 138.3116 0002692 357.2615 224.4419  1.00272189 10500
ASTRA 2D                
1 26638U 00081A   17200.20274653  .00000036  00000-0  00000-0 0  9992
2 26638   3.7105  69.9219 0001736  45.2896 314.6162  1.00271665 60748
AMC-8 (GE-8)            
1 26639U 00081B   17200.75809987  .00000093  00000-0  00000-0 0  9990
2 26639   0.0181 347.3693 0002439 122.3510 321.9007  1.00271504 60711
SKYNET 4F               
1 26695U 01005B   17200.88553003 -.00000263  00000-0  00000-0 0  9998
2 26695   8.9338  36.4058 0002549  78.9615 107.3083  1.00271391 60252
EUTELSAT 33C            
1 26719U 01011A   17200.82810275  .00000144  00000-0  00000-0 0  9990
2 26719   0.0628  18.2977 0002760  98.4088 152.2784  1.00272327 59949
INTELSAT 10 (IS-10)     
1 26766U 01019A   17200.95612791  .00000112  00000-0  00000-0 0  9992
2 26766   1.5837  85.1017 0001766   8.9450 235.5685  1.00271613 13000
INTELSAT 901 (IS-901)   
1 26824U 01024A   17200.87966010 -.00000153  00000-0  00000-0 0  9996
2 26824   0.0318 290.3704 0002686 191.1946 114.9538  1.00271611 59064
ASTRA 2C                
1 26853U 01025A   17200.87848091  .00000034  00000-0  00000-0 0  9994
2 26853   0.4670  91.6421 0003121  29.2030 193.5577  1.00273077 12422
ARTEMIS                 
1 26863U 01029A   17199.84267760 -.00000382  00000-0  00000-0 0  9998
2 26863  12.7623  32.7384 0001435 129.6423 200.8333  1.00275205 11503
INTELSAT 902 (IS-902)   
1 26900U 01039A   17200.05809778  .00000024  00000-0  00000-0 0  9990
2 26900   0.0150  51.8103 0002865  65.1109 263.0088  1.00270893 58130
EUTELSAT 12 WEST B      
1 26927U 01042A   17200.87966010 -.00000112  00000-0  00000-0 0  9995
2 26927   0.0472  35.6018 0004247  73.3720 133.0456  1.00271372 57886
DIRECTV 4S              
1 26985U 01052A   17200.73868782 -.00000124  00000-0  00000-0 0  9995
2 26985   0.0386 262.4049 0001529 219.2101 340.8140  1.00270776 18682
INSAT-3C                
1 27298U 02002A   17198.63104840 -.00000263  00000-0  00000-0 0  9996
2 27298   0.6867  91.5033 0002484 143.8374  20.8228  1.00266593 56708
ECHOSTAR 7              
1 27378U 02006A   17200.74841003 -.00000011  00000-0  00000-0 0  9995
2 27378   0.0330 300.6266 0000916 167.7641 339.9295  1.00271851 18011
INTELSAT 904 (IS-904)   
1 27380U 02007A   17200.17637957  .00000126  00000-0  00000-0 0  9993
2 27380   0.0131  96.8252 0002536  32.7071 276.2111  1.00272553 56450
TDRS 9                  
1 27389U 02011A   17200.87966010 -.00000114  00000-0  00000-0 0  9997
2 27389   5.3144  78.6839 0015882 248.9701 274.9068  1.00272611 57811
JCSAT 2A                
1 27399U 02015A   17200.78424722 -.00000320  00000-0  00000-0 0  9990
2 27399   0.5460  92.6489 0002123  81.6264 181.7548  1.00266251 56266
ASTRA 3A                
1 27400U 02015B   17199.49745836 -.00000291  00000-0  00000-0 0  9997
2 27400   3.8713  68.6475 0002695  65.4634 294.4741  1.00273683 56083
INTELSAT 903 (IS-903)   
1 27403U 02016A   17200.87905323 -.00000250  00000-0  00000-0 0  9990
2 27403   0.0151 355.7216 0002608 142.5257  81.5506  1.00271275 13044
NSS-7                   
1 27414U 02019A   17199.46153683 -.00000165  00000-0  00000-0 0  9996
2 27414   1.9579  82.9428 0002649  34.0846 325.5747  1.00272188 55923
DIRECTV 5 (TEMPO 1)     
1 27426U 02023A   17200.47970240 -.00000066  00000-0  00000-0 0  9994
2 27426   0.0452 264.8217 0003120 223.0226 232.1775  1.00270948 55690
INTELSAT 905 (IS-905)   
1 27438U 02027A   17200.69976694 -.00000195  00000-0  00000-0 0  9997
2 27438   0.0393 240.0325 0002206 233.9090  51.1596  1.00272206 18740
EXPRESS-A4              
1 27441U 02029A   17200.92050690 -.00000260  00000-0  00000-0 0  9991
2 27441   6.1137  56.3124 0006076  80.1771 278.1567  1.00276954 55338
GALAXY 3C (G-3C)        
1 27445U 02030A   17199.44051794 -.00000158  00000-0  00000-0 0  9993
2 27445   0.0213 323.1317 0001561 343.6135  53.2361  1.00269467 55317
EUTELSAT 5 WEST A       
1 27460U 02035A   17200.18856030 -.00000052  00000-0  00000-0 0  9998
2 27460   0.0445 346.3932 0004752 130.4952 243.1546  1.00271555 54983
N-STAR C                
1 27461U 02035B   17200.51671285 -.00000325  00000-0  00000-0 0  9996
2 27461   4.6900  64.6325 0004312  21.5255 173.3101  1.00268563 55026
EUTELSAT 36 WEST A      
1 27508U 02040A   17199.27756587 -.00000253  00000-0  00000-0 0  9993
2 27508   0.0641   2.2512 0003263  61.0657 296.7125  1.00269127 54601
METEOSAT-8 (MSG-1)      
1 27509U 02040B   17200.17653549  .00000127  00000-0  00000-0 0  9999
2 27509   4.8937  58.2415 0001760 187.5711 156.5384  1.00281600 54611
INTELSAT 906 (IS-906)   
1 27513U 02041A   17200.87633924  .00000003  00000-0  00000-0 0  9990
2 27513   0.0036  24.2021 0002959 109.1899 184.0708  1.00271457 54400
KODAMA (DRTS)           
1 27516U 02042B   17200.04455462 -.00000252  00000-0  00000-0 0  9999
2 27516   5.0971  61.8953 0002010  76.7288 265.1503  1.00269585 13268
KALPANA-1 (METSAT 1)    
1 27525U 02043A   17200.12319059 -.00000092  00000-0  00000-0 0  9992
2 27525   6.4009  55.0336 0012105 227.7911 132.1107  1.00269177 54425
HISPASAT 1D             
1 27528U 02044A   17200.88903866 -.00000228  00000-0  00000-0 0  9995
2 27528   0.0501 303.8321 0002466 169.9432 114.1494  1.00271427 10182
TDRS 10                 
1 27566U 02055A   17199.82159528  .00000067  00000-0  00000-0 0  9998
2 27566   5.0874  58.2830 0005573 237.2654 122.6612  1.00268184 53599
NSS-6                   
1 27603U 02057A   17200.66933081 -.00000280  00000-0  00000-0 0  9999
2 27603   0.0255 298.1919 0001535 214.5523 120.8548  1.00268006 53466
NIMIQ 2                 
1 27632U 02062A   17200.27268481 -.00000292  00000-0  00000-0 0  9992
2 27632   2.0592  81.8029 0001346 183.8839  66.7423  1.00269449 53238
INTELSAT 907 (IS-907)   
1 27683U 03007A   17200.25080787 -.00000212  00000-0  00000-0 0  9999
2 27683   0.0125  55.3831 0002840  85.3258 219.3117  1.00269910 52757
GALAXY 12 (G-12)        
1 27715U 03013B   17200.59632615  .00000048  00000-0  00000-0 0  9998
2 27715   0.0501 255.9654 0001947 248.9521 238.3240  1.00272526 52372
ASIASAT 4               
1 27718U 03014A   17200.85239804 -.00000372  00000-0  00000-0 0  9995
2 27718   0.0191 270.7879 0000354 353.1837 102.7981  1.00269135 52293
HELLAS-SAT 2            
1 27811U 03020A   17200.84559787  .00000140  00000-0  00000-0 0  9992
2 27811   0.0119 188.8550 0003571 311.4897 140.9016  1.00269848 51708
AMC-9 (GE-12)           
1 27820U 03024A   17200.73382590 -.00000188  00000-0  00000-0 0  9993
2 27820   0.0431  73.6827 0040172 326.5586  72.6292  1.00210529 51757
THURAYA-2               
1 27825U 03026A   17200.63097108  .00000117  00000-0  00000-0 0  9998
2 27825   4.9456  29.2509 0004571  86.8037  92.7141  1.00274717 51717
OPTUS C1                
1 27831U 03028B   17200.42668181 -.00000158  00000-0  00000-0 0  9995
2 27831   0.0537 142.9554 0003798 352.6204 111.4293  1.00270485 20423
ECHOSTAR 12 (RAINBOW 1) 
1 27852U 03033A   17200.79771392 -.00000293  00000-0  00000-0 0  9993
2 27852   0.0485 281.1579 0001383 243.8580 358.6991  1.00268409 51356
GALAXY 23 (G-23)        
1 27854U 03034A   17200.74841003  .00000002  00000-0  00000-0 0  9995
2 27854   0.0186  69.5813 0002901  49.1147 327.4459  1.00271873 51114
EUTELSAT 33A            
1 27948U 03043A   17200.72441201  .00000139  00000-0  00000-0 0  9994
2 27948   2.4344  78.2238 0002548 232.3788 278.7114  1.00272321 50699
GALAXY 13 (HORIZONS-1)  
1 27954U 03044A   17200.75323723  .00000037  00000-0  00000-0 0  9990
2 27954   0.0087  40.8084 0001433  36.5083   4.5478  1.00272447 13946
ZHONGXING-20            
1 28082U 03052A   17200.91435906 -.00000340  00000-0  00000-0 0  9995
2 28082   3.5676  71.1644 0001784  79.7241 219.4276  1.00272605 50124
YAMAL 202               
1 28089U 03053A   17200.88518119  .00000108  00000-0  00000-0 0  9998
2 28089   0.0480  95.1848 0002623   1.3495 208.9589  1.00270199 50040
EXPRESS-AM22 (SESAT 2)  
1 28134U 03060A   17200.84771448 -.00000149  00000-0  00000-0 0  9995
2 28134   0.5171  91.5250 0000586 154.4897  77.0679  1.00270585 49640
AMC-10 (GE-10)          
1 28154U 04003A   17200.75323723  .00000077  00000-0  00000-0 0  9993
2 28154   0.0528 276.9299 0002457 182.1287 334.8288  1.00269845 49282
ABS-4 (MOBISAT-1)       
1 28184U 04007A   17200.33104862  .00000031  00000-0  00000-0 0  9995
2 28184   0.0268  75.7884 0001840  44.2434 357.4105  1.00272074 48947
EUTELSAT 7A             
1 28187U 04008A   17200.12106517  .00000039  00000-0  00000-0 0  9993
2 28187   0.0707 342.2303 0005157 155.7404 209.7325  1.00274299 48939
DIRECTV 7S              
1 28238U 04016A   17200.74841003 -.00000010  00000-0  00000-0 0  9993
2 28238   0.0128   5.2383 0002823 122.6559 320.1844  1.00272142 48443
AMC-11 (GE-11)          
1 28252U 04017A   17200.75323723  .00000058  00000-0  00000-0 0  9996
2 28252   0.0402 305.4107 0002471 175.0846 317.3739  1.00271357 48317
INTELSAT 10-02          
1 28358U 04022A   17200.76055338 -.00000023  00000-0  00000-0 0  9997
2 28358   0.0130 114.7219 0000373 225.5200 230.3017  1.00270994 48017
APSTAR 5 (TELSTAR 18)   
1 28364U 04024A   17200.72726302 -.00000306  00000-0  00000-0 0  9992
2 28364   0.0069 329.9388 0002739 146.4146 221.1266  1.00269675 47916
